NORAD_CAT_ID,OBJECT_NAME,OBJECT_TYPE,EPOCH,MEAN_MOTION,ECCENTRICITY,INCLINATION,RA_OF_ASC_NODE,ARG_OF_PERICENTER,MEAN_ANOMALY,BSTAR,MEAN_MOTION_DOT,MEAN_MOTION_DDOT,TLE_LINE0,TLE_LINE1,TLE_LINE2,SEMIMAJOR_AXIS,PERIOD,APOGEE,PERIGEE,DECAYED
56495.0,STARLINK-5529,PAYLOAD,2023-10-07 10:43:51,15.69923273,0.0003392,69.9988,184.3345,262.9064,97.1746,1.8653e-05,2.031e-05,0.0,0 STARLINK-5529,1 56495U 23064AZ  23280.44712794  .00002031  00000-0  18653-4 0  9990,2 56495  69.9988 184.3345 0003392 262.9064  97.1746 15.69923273 23527,6737.254,91.724,361.404,356.833,0.0
56495.0,STARLINK-5529,PAYLOAD,2023-10-07 18:22:37,15.69915514,0.0003336,69.9988,183.4387,256.244,103.8384,3.1715e-05,3.601e-05,0.0,0 STARLINK-5529,1 56495U 23064AZ  23280.76571419  .00003601  00000-0  31715-4 0  9990,2 56495  69.9988 183.4387 0003336 256.2440 103.8384 15.69915514 23921,6737.276,91.725,361.388,356.893,0.0
56495.0,STARLINK-5529,PAYLOAD,2023-10-07 21:26:07,15.69925084,0.0003188,69.9992,183.0804,257.309,102.7749,2.4334e-06,8e-07,0.0,0 STARLINK-5529,1 56495U 23064AZ  23280.89314361  .00000080  00000-0  24334-5 0  9993,2 56495  69.9992 183.0804 0003188 257.3090 102.7749 15.69925084 23593,6737.248,91.724,361.261,356.965,0.0
56495.0,STARLINK-5529,PAYLOAD,2023-10-08 02:01:22,15.69929231,0.0003224,69.9992,182.543,258.3779,101.7055,-6.7549e-06,-1.025e-05,0.0,0 STARLINK-5529,1 56495U 23064AZ  23281.08429144 -.00001025  00000-0 -67549-5 0  9998,2 56495  69.9992 182.5430 0003224 258.3779 101.7055 15.69929231 23977,6737.236,91.724,361.274,356.929,0.0
56495.0,STARLINK-5529,PAYLOAD,2023-10-08 11:11:53,15.69941785,0.0003034,69.9982,181.4677,265.7497,94.3352,-5.4627e-06,-8.7e-06,0.0,0 STARLINK-5529,1 56495U 23064AZ  23281.46658774 -.00000870  00000-0 -54627-5 0  9993,2 56495  69.9982 181.4677 0003034 265.7497  94.3352 15.69941785 23688,6737.201,91.723,361.11,357.021,0.0
56495.0,STARLINK-5529,PAYLOAD,2023-10-08 20:22:24,15.69932091,0.0003245,69.9996,180.393,262.5986,97.4841,2.066e-05,2.273e-05,0.0,0 STARLINK-5529,1 56495U 23064AZ  23281.84888996  .00002273  00000-0  20660-4 0  9992,2 56495  69.9996 180.3930 0003245 262.5986  97.4841 15.69932091 23749,6737.228,91.724,361.28,356.907,0.0
56495.0,STARLINK-5529,PAYLOAD,2023-10-09 02:29:24,15.69924165,0.0003389,69.9993,179.6772,265.3243,94.7566,3.2613e-06,1.79e-06,0.0,0 STARLINK-5529,1 56495U 23064AZ  23282.10376051  .00000179  00000-0  32613-5 0  9991,2 56495  69.9993 179.6772 0003389 265.3243  94.7566 15.69924165 24138,6737.251,91.724,361.399,356.833,0.0
56495.0,STARLINK-5529,PAYLOAD,2023-10-09 19:18:41,15.69930278,0.0002798,70.0003,177.7086,274.6126,85.475,1.1294e-05,1.146e-05,0.0,0 STARLINK-5529,1 56495U 23064AZ  23282.80464408  .00001146  00000-0  11294-4 0  9998,2 56495  70.0003 177.7086 0002798 274.6126  85.4750 15.69930278 23892,6737.233,91.724,360.984,357.213,0.0
56495.0,STARLINK-5529,PAYLOAD,2023-10-10 02:57:26,15.69928006,0.0003241,69.9991,176.8101,273.3088,86.7737,1.3922e-05,1.462e-05,0.0,0 STARLINK-5529,1 56495U 23064AZ  23283.12322735  .00001462  00000-0  13922-4 0  9991,2 56495  69.9991 176.8101 0003241 273.3088  86.7737 15.69928006 24290,6737.24,91.724,361.289,356.921,0.0
56495.0,STARLINK-5529,PAYLOAD,2023-10-10 10:36:12,15.69929789,0.0003111,69.9991,175.9141,275.8785,84.2056,1.1946e-05,1.224e-05,0.0,0 STARLINK-5529,1 56495U 23064AZ  23283.44180983  .00001224  00000-0  11946-4 0  9993,2 56495  69.9991 175.9141 0003111 275.8785  84.2056 15.69929789 23993,6737.235,91.724,361.196,357.004,0.0
56495.0,STARLINK-5529,PAYLOAD,2023-10-10 18:14:58,15.69922456,0.000323,69.9999,175.0195,264.8314,95.2513,5.162e-06,4.08e-06,0.0,0 STARLINK-5529,1 56495U 23064AZ  23283.76039847  .00000408  00000-0  51620-5 0  9997,2 56495  69.9999 175.0195 0003230 264.8314  95.2513 15.69922456 24398,6737.256,91.724,361.297,356.945,0.0
56495.0,STARLINK-5529,PAYLOAD,2023-10-10 19:46:43,15.69924312,0.0003217,70.0007,174.8404,266.0147,94.0681,9.1009e-06,8.82e-06,0.0,0 STARLINK-5529,1 56495U 23064AZ  23283.82411459  .00000882  00000-0  91009-5 0  9998,2 56495  70.0007 174.8404 0003217 266.0147  94.0681 15.69924312 24053,6737.251,91.724,361.283,356.948,0.0
56495.0,STARLINK-5529,PAYLOAD,2023-10-11 01:53:43,15.69936029,0.0002997,70.0011,174.1258,253.3523,106.7344,2.5018e-05,2.798e-05,0.0,0 STARLINK-5529,1 56495U 23064AZ  23284.07897521  .00002798  00000-0  25018-4 0  9998,2 56495  70.0011 174.1258 0002997 253.3523 106.7344 15.69936029 24447,6737.217,91.723,361.101,357.063,0.0
56495.0,STARLINK-5529,PAYLOAD,2023-10-12 02:21:46,15.69911919,0.0003468,69.9991,171.2595,273.9058,86.1741,-2.2292e-05,-2.891e-05,0.0,0 STARLINK-5529,1 56495U 23064AZ  23285.09845594 -.00002891  00000-0 -22292-4 0  9991,2 56495  69.9991 171.2595 0003468 273.9058  86.1741 15.69911919 24609,6737.286,91.725,361.487,356.815,0.0
56495.0,STARLINK-5529,PAYLOAD,2023-10-12 10:00:31,15.69929492,0.0003662,70.0005,170.3621,266.2517,93.826,3.9465e-05,4.536e-05,0.0,0 STARLINK-5529,1 56495U 23064AZ  23285.41703061  .00004536  00000-0  39465-4 0  9995,2 56495  70.0005 170.3621 0003662 266.2517  93.8260 15.69929492 24302,6737.236,91.724,361.568,356.634,0.0
56495.0,STARLINK-5529,PAYLOAD,2023-10-12 19:11:02,15.69918961,0.0003474,70.0014,169.2881,267.7871,92.2927,-6.9506e-06,-1.048e-05,0.0,0 STARLINK-5529,1 56495U 23064AZ  23285.79933335 -.00001048  00000-0 -69506-5 0  9992,2 56495  70.0014 169.2881 0003474 267.7871  92.2927 15.69918961 24714,6737.266,91.724,361.471,356.79,0.0
56495.0,STARLINK-5529,PAYLOAD,2023-10-13 02:49:47,15.6993114,0.0003261,70.0007,168.3934,259.5541,100.5287,2.3769e-05,2.647e-05,0.0,0 STARLINK-5529,1 56495U 23064AZ  23286.11791388  .00002647  00000-0  23769-4 0  9993,2 56495  70.0007 168.3934 0003261 259.5541 100.5287 15.69931140 24763,6737.231,91.724,361.293,356.899,0.0
56495.0,STARLINK-5529,PAYLOAD,2023-10-13 19:39:03,15.6994217,0.0003124,70.0012,166.4214,269.7415,90.3423,5.9603e-07,-1.41e-06,0.0,0 STARLINK-5529,1 56495U 23064AZ  23286.81879137 -.00000141  00000-0  59603-6 0  9995,2 56495  70.0012 166.4214 0003124 269.7415  90.3423 15.69942170 24527,6737.199,91.723,361.169,356.96,0.0
56495.0,STARLINK-5529,PAYLOAD,2023-10-14 01:46:05,15.69884266,0.0002908,70.0002,165.704,272.5109,87.5753,-0.00012302,-0.00014952,0.0,0 STARLINK-5529,1 56495U 23064AZ  23287.07367755 -.00014952  00000-0 -12302-3 0  9990,2 56495  70.0002 165.7040 0002908 272.5109  87.5753 15.69884266 24914,6737.365,91.727,361.189,357.271,0.0
56495.0,STARLINK-5529,PAYLOAD,2023-10-14 09:24:51,15.69896654,0.0003476,70.0,164.8089,264.6919,95.388,-6.985e-05,-8.594e-05,0.0,0 STARLINK-5529,1 56495U 23064AZ  23287.39225978 -.00008594  00000-0 -69850-4 0  9991,2 56495  70.0000 164.8089 0003476 264.6919  95.3880 15.69896654 24964,6737.33,91.726,361.537,356.853,0.0
56495.0,STARLINK-5529,PAYLOAD,2023-10-14 18:35:22,15.699152,0.0003005,70.0011,163.7345,264.8704,95.2149,8.5723e-06,8.18e-06,0.0,0 STARLINK-5529,1 56495U 23064AZ  23287.77456051  .00000818  00000-0  85723-5 0  9998,2 56495  70.0011 163.7345 0003005 264.8704  95.2149 15.69915200 25025,6737.277,91.725,361.166,357.117,0.0
56495.0,STARLINK-5529,PAYLOAD,2023-10-15 02:14:06,15.69937588,0.0002836,70.0,162.8389,250.0438,110.0453,6.9251e-05,8.126e-05,0.0,0 STARLINK-5529,1 56495U 23064AZ  23288.09313595  .00008126  00000-0  69251-4 0  9996,2 56495  70.0000 162.8389 0002836 250.0438 110.0453 15.69937588 25075,6737.213,91.723,360.988,357.167,0.0
56495.0,STARLINK-5529,PAYLOAD,2023-10-15 19:03:23,15.69931559,0.0003293,69.9997,160.8677,255.6371,104.446,4.775e-05,5.534e-05,0.0,0 STARLINK-5529,1 56495U 23064AZ  23288.79402042  .00005534  00000-0  47750-4 0  9999,2 56495  69.9997 160.8677 0003293 255.6371 104.4460 15.69931559 25189,6737.23,91.724,361.313,356.876,0.0
56495.0,STARLINK-5529,PAYLOAD,2023-10-15 22:06:53,15.69941563,0.0003503,69.9991,160.5092,265.4598,94.6197,8.4177e-05,9.928e-05,0.0,0 STARLINK-5529,1 56495U 23064AZ  23288.92145192  .00009928  00000-0  84177-4 0  9999,2 56495  69.9991 160.5092 0003503 265.4598  94.6197 15.69941563 24851,6737.201,91.723,361.426,356.706,0.0
56495.0,STARLINK-5529,PAYLOAD,2023-10-16 01:10:24,15.69906855,0.0003293,69.9991,160.1506,266.4834,93.5985,-2.6388e-05,-3.382e-05,0.0,0 STARLINK-5529,1 56495U 23064AZ  23289.04889486 -.00003382  00000-0 -26388-4 0  9994,2 56495  69.9991 160.1506 0003293 266.4834  93.5985 15.69906855 25227,6737.3,91.725,361.384,356.947,0.0
56495.0,STARLINK-5529,PAYLOAD,2023-10-16 16:27:54,15.69931034,0.0003821,70.0004,158.3596,269.4738,90.602,1.8636e-05,2.029e-05,0.0,0 STARLINK-5529,1 56495U 23064AZ  23289.68605205  .00002029  00000-0  18636-4 0  9991,2 56495  70.0004 158.3596 0003821 269.4738  90.6020 15.69931034 25322,6737.231,91.724,361.671,356.522,0.0
56495.0,STARLINK-5529,PAYLOAD,2023-10-18 00:34:42,15.69933951,0.0004031,69.9986,154.5988,268.969,91.1044,2.1839e-05,2.415e-05,0.0,0 STARLINK-5529,1 56495U 23064AZ  23291.02409938  .00002415  00000-0  21839-4 0  9995,2 56495  69.9986 154.5988 0004031 268.9690  91.1044 15.69933951 25182,6737.223,91.724,361.804,356.372,0.0
56495.0,STARLINK-5529,PAYLOAD,2023-10-18 08:13:28,15.69913961,0.0003707,69.9981,153.7033,270.6808,89.3963,-8.4181e-06,-1.225e-05,0.0,0 STARLINK-5529,1 56495U 23064AZ  23291.34269129 -.00001225  00000-0 -84181-5 0  9996,2 56495  69.9981 153.7033 0003707 270.6808  89.3963 15.69913961 25581,6737.28,91.725,361.643,356.648,0.0
56495.0,STARLINK-5529,PAYLOAD,2023-10-19 01:02:43,15.69944903,0.000372,69.9972,151.7325,272.667,87.41,4.4678e-05,5.167e-05,0.0,0 STARLINK-5529,1 56495U 23064AZ  23292.04355850  .00005167  00000-0  44678-4 0  9994,2 56495  69.9972 151.7325 0003720 272.6670  87.4100 15.69944903 25691,6737.192,91.723,361.563,356.55,0.0
56495.0,STARLINK-5529,PAYLOAD,2023-10-19 14:48:30,15.69923436,0.0003231,69.998,150.1216,272.6999,87.3827,2.45e-05,2.734e-05,0.0,0 STARLINK-5529,1 56495U 23064AZ  23292.61701614  .00002734  00000-0  24500-4 0  9999,2 56495  69.9980 150.1216 0003231 272.6999  87.3827 15.69923436 25438,6737.253,91.724,361.295,356.941,0.0
